[{"OBJECT_NAME":"TRANSPORTER-10 OBJECT AD","OBJECT_ID":"2024-043AD","EPOCH":"2026-03-09T20:38:52.416960","MEAN_MOTION":15.34189901,"ECCENTRICITY":0.00089841,"INCLINATION":97.547,"RA_OF_ASC_NODE":207.3753,"ARG_OF_PERICENTER":221.4908,"MEAN_ANOMALY":138.5653,"EPHEMERIS_TYPE":0,"CLASSIFICATION_TYPE":"U","NORAD_CAT_ID":59125,"ELEMENT_SET_NO":999,"REV_AT_EPOCH":11202,"BSTAR":0.00036310552,"MEAN_MOTION_DOT":0.00011954,"MEAN_MOTION_DDOT":0},{"OBJECT_NAME":"STARLINK-34525","OBJECT_ID":"2025-139Q","EPOCH":"2026-03-09T10:55:06.741696","MEAN_MOTION":15.30199814,"ECCENTRICITY":0.00011494,"INCLINATION":53.1578,"RA_OF_ASC_NODE":128.4477,"ARG_OF_PERICENTER":87.3536,"MEAN_ANOMALY":272.7596,"EPHEMERIS_TYPE":0,"CLASSIFICATION_TYPE":"U","NORAD_CAT_ID":64678,"ELEMENT_SET_NO":999,"REV_AT_EPOCH":4024,"BSTAR":0.00045252463,"MEAN_MOTION_DOT":0.00013067,"MEAN_MOTION_DDOT":0}]
