TRANSPORTER-10 OBJECT AD
1 59125U 24043AD  26068.86032889  .00011954  00000+0  36311-3 0  9997
2 59125  97.5470 207.3753 0008984 221.4908 138.5653 15.34189901112026
STARLINK-34525          
1 64678U 25139Q   26068.45493914  .00013067  00000+0  45252-3 0  9999
2 64678  53.1578 128.4477 0001149  87.3536 272.7596 15.30199814 40241
